OBJECT_NAME,OBJECT_ID,EPOCH,MEAN_MOTION,ECCENTRICITY,INCLINATION,RA_OF_ASC_NODE,ARG_OF_PERICENTER,MEAN_ANOMALY,EPHEMERIS_TYPE,CLASSIFICATION_TYPE,NORAD_CAT_ID,ELEMENT_SET_NO,REV_AT_EPOCH,BSTAR,MEAN_MOTION_DOT,MEAN_MOTION_DDOT
LUDI TANCE 1-01A (L-SAR 01A),2022-007A,2026-06-17T15:38:27.901248,14.88407408,.0001596,97.8104,176.0648,89.2126,270.9274,0,U,51284,999,23854,.57543E-4,.479E-5,0
LUDI TANCE 1-01B (L-SAR 01B),2022-018A,2026-06-17T14:50:03.350976,14.88418961,.0001617,97.8103,176.0284,92.1850,267.9552,0,U,51822,999,23377,.57847139E-4,.482E-5,0
2022-023F,2022-023F,2026-06-16T11:39:20.120256,15.18072257,.0129894,63.4457,275.8648,342.4004,17.2627,0,U,51951,999,23760,.43375579E-3,.10852E-3,0
MERIDIAN 10,2022-030A,2026-06-16T23:17:00.174624,2.00613491,.67838958,62.6761,140.8258,272.8533,17.6452,0,U,52145,999,3102,0,.175E-5,0
OMNI-L1,2022-033A,2026-06-17T10:46:16.391712,14.82749913,.00038046,97.8398,247.6210,287.1574,72.9223,0,U,52157,999,22749,.20165208E-3,.1577E-4,0
ENMAP,2022-033C,2026-06-17T13:44:25.028160,14.74987381,.00014146,97.9799,250.8169,85.1721,274.9649,0,U,52159,999,22671,.28005873E-4,.138E-5,0
ARCSAT-1,2022-033E,2026-06-17T13:50:01.370400,15.53622784,.00050539,97.2753,260.8548,176.7287,183.4000,0,U,52161,999,23576,.15559146E-3,.9827E-4,0
GLOBAL-18,2022-034B,2026-06-17T12:19:17.639040,15.46297810,.0003173,52.9814,255.0810,281.4841,78.5808,0,U,52196,999,23701,.37305734E-3,.18298E-3,0
GAOFEN-3 03,2022-035A,2026-06-17T15:30:09.399168,14.42214998,.00012864,98.4053,177.2196,99.1918,260.9417,0,U,52200,999,22091,.3594176E-5,-.32E-6,0
DAQI-1,2022-039A,2026-06-17T15:01:14.973600,14.57677385,.00022446,98.1490,107.4691,252.5465,107.5489,0,U,52257,999,22200,.44307452E-4,.157E-5,0
BRO-6,2022-047AE,2026-06-17T14:08:52.190016,15.50573057,.00049828,97.3401,259.6521,78.2556,281.9255,0,U,52422,999,23121,.51695099E-3,.29547E-3,0
JILIN-1 GAOFEN 3D27,2022-048B,2026-06-17T09:49:16.970016,15.75379061,.00009651,97.5716,282.3639,18.7382,341.3918,0,U,52444,999,22951,.66641727E-3,.101286E-2,0
JILIN-1 GAOFEN 3D28,2022-048C,2026-06-17T14:21:32.398560,15.78491053,.00005657,97.5652,282.7218,205.5368,154.5871,0,U,52445,999,22959,.74596836E-3,.130472E-2,0
VIGORIDE-3,2022-057AE,2026-06-17T11:29:24.519264,15.27282148,.00096141,97.6611,308.4602,119.4846,240.7352,0,U,52760,999,22520,.17181278E-3,.4519E-4,0
ION SCV-006,2022-057AF,2026-06-17T08:37:26.734944,15.45291758,.00184095,97.6104,316.9890,113.1270,247.1921,0,U,52761,999,22614,.21551789E-3,.10232E-3,0
SHERPA-AC1,2022-057AH,2026-06-17T09:25:19.626528,15.36265823,.00089114,97.6691,317.6268,92.8782,267.3481,0,U,52763,999,22573,.17155187E-3,.5984E-4,0
OMNI-L2,2022-057AR,2026-06-17T14:17:19.129056,14.81371687,.00057339,97.4716,230.9264,335.3579,24.7360,0,U,52771,999,22045,.14478362E-3,.1084E-4,0
STEP CUBE LAB-II,2022-065D,2026-06-17T14:44:59.241120,14.63304109,.00092918,98.2228,312.5145,31.3716,328.8038,0,U,52897,999,21156,.13792041E-3,.664E-5,0
RANDEV,2022-065E,2026-06-17T14:46:22.505664,14.63691452,.00086292,98.2212,312.8671,32.3139,327.8590,0,U,52898,999,21131,.13497762E-3,.654E-5,0
SNUGLITE-II,2022-065F,2026-06-17T08:56:40.916256,14.64347943,.00079954,98.2202,313.2028,32.5324,327.6370,0,U,52899,999,21102,.15131138E-3,.751E-5,0
MIMAN,2022-065G,2026-06-17T09:22:21.830016,14.61843760,.00082133,98.2261,310.8717,34.3529,325.8201,0,U,52900,999,21047,.86851412E-4,.386E-5,0
STARLINK-4362,2022-077A,2026-06-17T11:09:36.260064,15.05655867,.00020378,97.3497,347.3982,87.1712,272.9748,0,U,53043,999,21592,-.44853689E-4,-.704E-5,0
LARES-2,2022-080A,2026-06-16T13:01:59.257344,6.38965086,.00053801,70.1619,305.5499,334.9817,25.0421,0,U,53105,999,9162,0,-.16E-6,0
GREENCUBE (IO-117),2022-080E,2026-06-13T07:02:28.697280,6.42583230,.00089108,70.1444,299.5995,290.4576,69.5127,0,U,53109,999,9181,0,-.3E-7,0
STARLINK-4410,2022-084R,2026-06-17T14:31:41.802816,15.30469569,.00017465,97.6006,229.7065,110.8843,249.2584,0,U,53204,999,21507,.13890501E-2,.41026E-3,0
COSMOS 2558,2022-089A,2026-06-17T14:11:10.263264,15.75235986,.00012378,97.2265,272.6716,238.1267,121.9878,0,U,53323,999,21789,.63992982E-3,.96597E-3,0
TECMS,2022-090A,2026-06-17T14:51:54.253152,15.21409735,.00035419,97.3140,236.7161,173.3665,186.7618,0,U,53346,999,21487,.13470901E-3,.2955E-4,0
