LUDI TANCE 1-01A (L-SA*)
1 51284U 22007A   26168.65171182  .00000479  00000+0  57543-4 0  9992
2 51284  97.8104 176.0648 0001596  89.2126 270.9274 14.88407408238549
LUDI TANCE 1-01B (L-SA*)
1 51822U 22018A   26168.61809434  .00000482  00000+0  57847-4 0  9997
2 51822  97.8103 176.0284 0001617  92.1850 267.9552 14.88418961233774
2022-023F               
1 51951U 22023F   26167.48564954  .00010852  00000+0  43376-3 0  9998
2 51951  63.4457 275.8648 0129894 342.4004  17.2627 15.18072257237603
MERIDIAN 10             
1 52145U 22030A   26167.97014091  .00000175  00000+0  00000+0 0  9998
2 52145  62.6761 140.8258 6783895 272.8533  17.6452  2.00613491 31028
OMNI-L1                 
1 52157U 22033A   26168.44880083  .00001577  00000+0  20165-3 0  9994
2 52157  97.8398 247.6210 0003804 287.1574  72.9223 14.82749913227494
ENMAP                   
1 52159U 22033C   26168.57251190  .00000138  00000+0  28006-4 0  9996
2 52159  97.9799 250.8169 0001414  85.1721 274.9649 14.74987381226710
ARCSAT-1                
1 52161U 22033E   26168.57640475  .00009827  00000+0  15559-3 0  9999
2 52161  97.2753 260.8548 0005053 176.7287 183.4000 15.53622784235766
GLOBAL-18               
1 52196U 22034B   26168.51339860  .00018298  00000+0  37306-3 0  9991
2 52196  52.9814 255.0810 0003173 281.4841  78.5808 15.46297810237019
GAOFEN-3 03             
1 52200U 22035A   26168.64594212 -.00000032  00000+0  35942-5 0  9990
2 52200  98.4053 177.2196 0001286  99.1918 260.9417 14.42214998220914
DAQI-1                  
1 52257U 22039A   26168.62586775  .00000157  00000+0  44307-4 0  9990
2 52257  98.1490 107.4691 0002244 252.5465 107.5489 14.57677385222006
BRO-6                   
1 52422U 22047AE  26168.58949294  .00029547  00000+0  51695-3 0  9998
2 52422  97.3401 259.6521 0004982  78.2556 281.9255 15.50573057231216
JILIN-1 GAOFEN 3D27     
1 52444U 22048B   26168.40922419  .00101286  00000+0  66642-3 0  9993
2 52444  97.5716 282.3639 0000965  18.7382 341.3918 15.75379061229510
JILIN-1 GAOFEN 3D28     
1 52445U 22048C   26168.59829165  .00130472  00000+0  74597-3 0  9995
2 52445  97.5652 282.7218 0000565 205.5368 154.5871 15.78491053229592
VIGORIDE-3              
1 52760U 22057AE  26168.47875601  .00004519  00000+0  17181-3 0  9996
2 52760  97.6611 308.4602 0009614 119.4846 240.7352 15.27282148225202
ION SCV-006             
1 52761U 22057AF  26168.35933721  .00010232  00000+0  21552-3 0  9998
2 52761  97.6104 316.9890 0018409 113.1270 247.1921 15.45291758226141
SHERPA-AC1              
1 52763U 22057AH  26168.39258827  .00005984  00000+0  17155-3 0  9993
2 52763  97.6691 317.6268 0008911  92.8782 267.3481 15.36265823225732
OMNI-L2                 
1 52771U 22057AR  26168.59536029  .00001084  00000+0  14478-3 0  9999
2 52771  97.4716 230.9264 0005733 335.3579  24.7360 14.81371687220458
STEP CUBE LAB-II        
1 52897U 22065D   26168.61457455  .00000664  00000+0  13792-3 0  9996
2 52897  98.2228 312.5145 0009291  31.3716 328.8038 14.63304109211565
RANDEV                  
1 52898U 22065E   26168.61553826  .00000654  00000+0  13498-3 0  9998
2 52898  98.2212 312.8671 0008629  32.3139 327.8590 14.63691452211315
SNUGLITE-II             
1 52899U 22065F   26168.37269579  .00000751  00000+0  15131-3 0  9995
2 52899  98.2202 313.2028 0007995  32.5324 327.6370 14.64347943211025
MIMAN                   
1 52900U 22065G   26168.39053044  .00000386  00000+0  86851-4 0  9990
2 52900  98.2261 310.8717 0008213  34.3529 325.8201 14.61843760210478
STARLINK-4362           
1 53043U 22077A   26168.46500301 -.00000704  00000+0 -44854-4 0  9996
2 53043  97.3497 347.3982 0002037  87.1712 272.9748 15.05655867215926
LARES-2                 
1 53105U 22080A   26167.54304696 -.00000016  00000+0  00000+0 0  9991
2 53105  70.1619 305.5499 0005380 334.9817  25.0421  6.38965086 91629
GREENCUBE (IO-117)      
1 53109U 22080E   26164.29338770 -.00000003  00000+0  00000+0 0  9990
2 53109  70.1444 299.5995 0008910 290.4576  69.5127  6.42583230 91811
STARLINK-4410           
1 53204U 22084R   26168.60534494  .00041026  00000+0  13891-2 0  9994
2 53204  97.6006 229.7065 0001746 110.8843 249.2584 15.30469569215075
COSMOS 2558             
1 53323U 22089A   26168.59109101  .00096597  00000+0  63993-3 0  9994
2 53323  97.2265 272.6716 0001237 238.1267 121.9878 15.75235986217896
TECMS                   
1 53346U 22090A   26168.61937793  .00002955  00000+0  13471-3 0  9991
2 53346  97.3140 236.7161 0003541 173.3665 186.7618 15.21409735214873
